[
  {"cityCode":"1","cityName":"ADANA","districtName":"ALADAĞ","districtCode":"0101","postalCode":"01710"},
  {"cityCode":"1","cityName":"ADANA","districtName":"CEYHAN","districtCode":"0102","postalCode":"01900"},
  {"cityCode":"1","cityName":"ADANA","districtName":"ÇUKUROVA","districtCode":"0103","postalCode":"01060"},
  {"cityCode":"1","cityName":"ADANA","districtName":"FEKE","districtCode":"0104","postalCode":"01720"},
  {"cityCode":"1","cityName":"ADANA","districtName":"İMAMOĞLU","districtCode":"0105","postalCode":"01650"},
  {"cityCode":"1","cityName":"ADANA","districtName":"KARAİSALI","districtCode":"0106","postalCode":"01770"},
  {"cityCode":"1","cityName":"ADANA","districtName":"KARATAŞ","districtCode":"0107","postalCode":"01760"},
  {"cityCode":"1","cityName":"ADANA","districtName":"KOZAN","districtCode":"0108","postalCode":"01500"},
  {"cityCode":"1","cityName":"ADANA","districtName":"POZANTI","districtCode":"0109","postalCode":"01470"},
  {"cityCode":"1","cityName":"ADANA","districtName":"SAİMBEYLİ","districtCode":"0110","postalCode":"01590"},
  {"cityCode":"1","cityName":"ADANA","districtName":"SARIÇAM","districtCode":"0111","postalCode":"01270"},
  {"cityCode":"1","cityName":"ADANA","districtName":"SEYHAN","districtCode":"0112","postalCode":"01010"},
  {"cityCode":"1","cityName":"ADANA","districtName":"TUFANBEYLİ","districtCode":"0113","postalCode":"01640"},
  {"cityCode":"1","cityName":"ADANA","districtName":"YUMURTALIK","districtCode":"0114","postalCode":"01680"},
  {"cityCode":"1","cityName":"ADANA","districtName":"YÜREĞİR","districtCode":"0115","postalCode":"01220"},
  {"cityCode":"2","cityName":"ADIYAMAN","districtName":"BESNI","districtCode":"0201","postalCode":"02600"},
  {"cityCode":"2","cityName":"ADIYAMAN","districtName":"ÇELİKHAN","districtCode":"0202","postalCode":"02700"},
  {"cityCode":"2","cityName":"ADIYAMAN","districtName":"GERGER","districtCode":"0203","postalCode":"02800"},
  {"cityCode":"2","cityName":"ADIYAMAN","districtName":"GÖLBAŞI","districtCode":"0204","postalCode":"02650"},
  {"cityCode":"2","cityName":"ADIYAMAN","districtName":"KAHTA","districtCode":"0205","postalCode":"02400"},
  {"cityCode":"2","cityName":"ADIYAMAN","districtName":"MERKEZ","districtCode":"0206","postalCode":"02040"},
  {"cityCode":"2","cityName":"ADIYAMAN","districtName":"SAMSAT","districtCode":"0207","postalCode":"02670"},
  {"cityCode":"2","cityName":"ADIYAMAN","districtName":"SİNCİK","districtCode":"0208","postalCode":"02660"},
  {"cityCode":"2","cityName":"ADIYAMAN","districtName":"TUT","districtCode":"0209","postalCode":"02900"},
  {"cityCode":"3","cityName":"AFYONKARAHİSAR","districtName":"BAŞMAKÇI","districtCode":"0301","postalCode":"03650"},
  {"cityCode":"3","cityName":"AFYONKARAHİSAR","districtName":"BAYAT","districtCode":"0302","postalCode":"03780"},
  {"cityCode":"3","cityName":"AFYONKARAHİSAR","districtName":"BOLVADİN","districtCode":"0303","postalCode":"03300"},
  {"cityCode":"3","cityName":"AFYONKARAHİSAR","districtName":"ÇAY","districtCode":"0304","postalCode":"03600"},
  {"cityCode":"3","cityName":"AFYONKARAHİSAR","districtName":"ÇOBANLAR","districtCode":"0305","postalCode":"03770"},
  {"cityCode":"3","cityName":"AFYONKARAHİSAR","districtName":"DAZKIRI","districtCode":"0306","postalCode":"03680"},
  {"cityCode":"3","cityName":"AFYONKARAHİSAR","districtName":"DİNAR","districtCode":"0307","postalCode":"03700"},
  {"cityCode":"3","cityName":"AFYONKARAHİSAR","districtName":"EMİRDAĞ","districtCode":"0308","postalCode":"03500"},
  {"cityCode":"3","cityName":"AFYONKARAHİSAR","districtName":"EVCİLER","districtCode":"0309","postalCode":"03760"},
  {"cityCode":"3","cityName":"AFYONKARAHİSAR","districtName":"HOCALAR","districtCode":"0310","postalCode":"03670"},
  {"cityCode":"3","cityName":"AFYONKARAHİSAR","districtName":"İHSANİYE","districtCode":"0311","postalCode":"03750"},
  {"cityCode":"3","cityName":"AFYONKARAHİSAR","districtName":"İSCEHİSAR","districtCode":"0312","postalCode":"03800"},
  {"cityCode":"3","cityName":"AFYONKARAHİSAR","districtName":"KIZILÖREN","districtCode":"0313","postalCode":"03660"},
  {"cityCode":"3","cityName":"AFYONKARAHİSAR","districtName":"MERKEZ","districtCode":"0314","postalCode":"03030"},
  {"cityCode":"3","cityName":"AFYONKARAHİSAR","districtName":"SANDIKLI","districtCode":"0315","postalCode":"03400"},
  {"cityCode":"3","cityName":"AFYONKARAHİSAR","districtName":"SİNANPAŞA","districtCode":"0316","postalCode":"03740"},
  {"cityCode":"3","cityName":"AFYONKARAHİSAR","districtName":"SULTANDAĞI","districtCode":"0317","postalCode":"03730"},
  {"cityCode":"3","cityName":"AFYONKARAHİSAR","districtName":"ŞUHUT","districtCode":"0318","postalCode":"03850"},
  {"cityCode":"4","cityName":"AĞRI","districtName":"DİYADİN","districtCode":"0401","postalCode":"04800"},
  {"cityCode":"4","cityName":"AĞRI","districtName":"DOĞUBAYAZIT","districtCode":"0402","postalCode":"04400"},
  {"cityCode":"4","cityName":"AĞRI","districtName":"ELEŞKİRT","districtCode":"0403","postalCode":"04700"},
  {"cityCode":"4","cityName":"AĞRI","districtName":"HAMUR","districtCode":"0404","postalCode":"04650"},
  {"cityCode":"4","cityName":"AĞRI","districtName":"MERKEZ","districtCode":"0405","postalCode":"04100"},
  {"cityCode":"4","cityName":"AĞRI","districtName":"PATNOS","districtCode":"0406","postalCode":"04500"},
  {"cityCode":"4","cityName":"AĞRI","districtName":"TAŞLIÇAY","districtCode":"0407","postalCode":"04600"},
  {"cityCode":"4","cityName":"AĞRI","districtName":"TUTAK","districtCode":"0408","postalCode":"04900"},
  {"cityCode":"5","cityName":"AMASYA","districtName":"GÖYNÜCEK","districtCode":"0501","postalCode":"05700"},
  {"cityCode":"5","cityName":"AMASYA","districtName":"GÜMÜŞHACIKÖY","districtCode":"0502","postalCode":"05500"},
  {"cityCode":"5","cityName":"AMASYA","districtName":"HAMAMÖZÜ","districtCode":"0503","postalCode":"05670"},
  {"cityCode":"5","cityName":"AMASYA","districtName":"MERZİFON","districtCode":"0504","postalCode":"05300"},
  {"cityCode":"5","cityName":"AMASYA","districtName":"MERKEZ","districtCode":"0505","postalCode":"05100"},
  {"cityCode":"5","cityName":"AMASYA","districtName":"SULUOVA","districtCode":"0506","postalCode":"05400"},
  {"cityCode":"5","cityName":"AMASYA","districtName":"TAŞOVA","districtCode":"0507","postalCode":"05600"}
]
